[{"OBJECT_NAME":"STARLINK-30700","OBJECT_ID":"2023-148U","EPOCH":"2026-03-09T23:34:44.787648","MEAN_MOTION":15.30185681,"ECCENTRICITY":0.00011054,"INCLINATION":53.1614,"RA_OF_ASC_NODE":12.8508,"ARG_OF_PERICENTER":66.1024,"MEAN_ANOMALY":294.0093,"EPHEMERIS_TYPE":0,"CLASSIFICATION_TYPE":"U","NORAD_CAT_ID":57953,"ELEMENT_SET_NO":999,"REV_AT_EPOCH":13860,"BSTAR":2.4725291e-5,"MEAN_MOTION_DOT":3.73e-6,"MEAN_MOTION_DDOT":0},{"OBJECT_NAME":"CZ-6A DEB","OBJECT_ID":"2022-151DE","EPOCH":"2026-03-09T09:45:43.657920","MEAN_MOTION":15.34292219,"ECCENTRICITY":0.00393756,"INCLINATION":99.0022,"RA_OF_ASC_NODE":218.5596,"ARG_OF_PERICENTER":192.6197,"MEAN_ANOMALY":167.4059,"EPHEMERIS_TYPE":0,"CLASSIFICATION_TYPE":"U","NORAD_CAT_ID":54359,"ELEMENT_SET_NO":999,"REV_AT_EPOCH":10560,"BSTAR":0.0065240017,"MEAN_MOTION_DOT":0.00228186,"MEAN_MOTION_DDOT":0}]
